[
{"CCSDS_OMM_VERS":"2.0",
"COMMENT":"GENERATED VIA SPACE-TRACK.ORG API",
"CREATION_DATE":"2022-10-23T18:52:44",
"ORIGINATOR":"18 SPCS",
"OBJECT_NAME":"VANGUARD 1",
"OBJECT_ID":"1958-002B",
"CENTER_NAME":"EARTH",
"REF_FRAME":"TEME",
"TIME_SYSTEM":"UTC",
"MEAN_ELEMENT_THEORY":"SGP4",
"EPOCH":"2022-10-23T12:44:03.675840",
"MEAN_MOTION":"10.85024384",
"ECCENTRICITY":"0.18471110",
"INCLINATION":"34.2571",
"RA_OF_ASC_NODE":"104.6889",
"ARG_OF_PERICENTER":"254.0779",
"MEAN_ANOMALY":"84.9431",
"EPHEMERIS_TYPE":"0",
"CLASSIFICATION_TYPE":"U",
"NORAD_CAT_ID":"5",
"ELEMENT_SET_NO":"999",
"REV_AT_EPOCH":"29845",
"BSTAR":"0.00023545000000",
"MEAN_MOTION_DOT":"0.00000208",
"MEAN_MOTION_DDOT":"0.0000000000000",
"SEMIMAJOR_AXIS":"8618.708",
"PERIOD":"132.716",
"APOAPSIS":"3832.544",
"PERIAPSIS":"648.602",
"OBJECT_TYPE":"PAYLOAD",
"RCS_SIZE":"SMALL",
"COUNTRY_CODE":"US",
"LAUNCH_DATE":"1958-03-17",
"SITE":"AFETR",
"DECAY_DATE":null,
"FILE":"3630365",
"GP_ID":"215941553",
"TLE_LINE0":"0 VANGUARD 1",
"TLE_LINE1":"1 00005U 58002B   22296.53059810  .00000208  00000-0  23545-3 0  9994",
"TLE_LINE2":"2 00005  34.2571 104.6889 1847111 254.0779  84.9431 10.85024384298454"},
{"CCSDS_OMM_VERS":"2.0",
"COMMENT":"GENERATED VIA SPACE-TRACK.ORG API",
"CREATION_DATE":"2022-10-24T02:57:07",
"ORIGINATOR":"18 SPCS",
"OBJECT_NAME":"VANGUARD 1",
"OBJECT_ID":"1958-002B",
"CENTER_NAME":"EARTH",
"REF_FRAME":"TEME",
"TIME_SYSTEM":"UTC",
"MEAN_ELEMENT_THEORY":"SGP4",
"EPOCH":"2022-10-23T19:21:43.680384",
"MEAN_MOTION":"10.85024497",
"ECCENTRICITY":"0.18471220",
"INCLINATION":"34.2573",
"RA_OF_ASC_NODE":"103.8381",
"ARG_OF_PERICENTER":"255.3203",
"MEAN_ANOMALY":"83.6393",
"EPHEMERIS_TYPE":"0",
"CLASSIFICATION_TYPE":"U",
"NORAD_CAT_ID":"5",
"ELEMENT_SET_NO":"999",
"REV_AT_EPOCH":"29848",
"BSTAR":"0.00023439000000",
"MEAN_MOTION_DOT":"0.00000207",
"MEAN_MOTION_DDOT":"0.0000000000000",
"SEMIMAJOR_AXIS":"8618.708",
"PERIOD":"132.716",
"APOAPSIS":"3832.553",
"PERIAPSIS":"648.592",
"OBJECT_TYPE":"PAYLOAD",
"RCS_SIZE":"SMALL",
"COUNTRY_CODE":"US",
"LAUNCH_DATE":"1958-03-17",
"SITE":"AFETR",
"DECAY_DATE":null,
"FILE":"3630604",
"GP_ID":"215974067",
"TLE_LINE0":"0 VANGUARD 1",
"TLE_LINE1":"1 00005U 58002B   22296.80675556  .00000207  00000-0  23439-3 0  9996",
"TLE_LINE2":"2 00005  34.2573 103.8381 1847122 255.3203  83.6393 10.85024497298483"},
{"CCSDS_OMM_VERS":"2.0",
"COMMENT":"GENERATED VIA SPACE-TRACK.ORG API",
"CREATION_DATE":"2022-10-24T14:46:13",
"ORIGINATOR":"18 SPCS",
"OBJECT_NAME":"VANGUARD 1",
"OBJECT_ID":"1958-002B",
"CENTER_NAME":"EARTH",
"REF_FRAME":"TEME",
"TIME_SYSTEM":"UTC",
"MEAN_ELEMENT_THEORY":"SGP4",
"EPOCH":"2022-10-24T10:49:37.927488",
"MEAN_MOTION":"10.85024749",
"ECCENTRICITY":"0.18471380",
"INCLINATION":"34.2576",
"RA_OF_ASC_NODE":"101.8528",
"ARG_OF_PERICENTER":"258.2196",
"MEAN_ANOMALY":"80.6376",
"EPHEMERIS_TYPE":"0",
"CLASSIFICATION_TYPE":"U",
"NORAD_CAT_ID":"5",
"ELEMENT_SET_NO":"999",
"REV_AT_EPOCH":"29864",
"BSTAR":"0.00023588000000",
"MEAN_MOTION_DOT":"0.00000208",
"MEAN_MOTION_DDOT":"0.0000000000000",
"SEMIMAJOR_AXIS":"8618.706",
"PERIOD":"132.716",
"APOAPSIS":"3832.565",
"PERIAPSIS":"648.577",
"OBJECT_TYPE":"PAYLOAD",
"RCS_SIZE":"SMALL",
"COUNTRY_CODE":"US",
"LAUNCH_DATE":"1958-03-17",
"SITE":"AFETR",
"DECAY_DATE":null,
"FILE":"3631021",
"GP_ID":"216007224",
"TLE_LINE0":"0 VANGUARD 1",
"TLE_LINE1":"1     5U 58002B   22297.45113342  .00000208  00000-0  23588-3 0  9994",
"TLE_LINE2":"2     5  34.2576 101.8528 1847138 258.2196  80.6376 10.85024749298643"},
{"CCSDS_OMM_VERS":"2.0",
"COMMENT":"GENERATED VIA SPACE-TRACK.ORG API",
"CREATION_DATE":"2022-10-24T17:56:30",
"ORIGINATOR":"18 SPCS",
"OBJECT_NAME":"VANGUARD 1",
"OBJECT_ID":"1958-002B",
"CENTER_NAME":"EARTH",
"REF_FRAME":"TEME",
"TIME_SYSTEM":"UTC",
"MEAN_ELEMENT_THEORY":"SGP4",
"EPOCH":"2022-10-24T13:02:11.496768",
"MEAN_MOTION":"10.85024727",
"ECCENTRICITY":"0.18471430",
"INCLINATION":"34.2576",
"RA_OF_ASC_NODE":"101.5691",
"ARG_OF_PERICENTER":"258.6337",
"MEAN_ANOMALY":"80.2135",
"EPHEMERIS_TYPE":"0",
"CLASSIFICATION_TYPE":"U",
"NORAD_CAT_ID":"5",
"ELEMENT_SET_NO":"999",
"REV_AT_EPOCH":"29856",
"BSTAR":"0.00022390000000",
"MEAN_MOTION_DOT":"0.00000198",
"MEAN_MOTION_DDOT":"0.0000000000000",
"SEMIMAJOR_AXIS":"8618.706",
"PERIOD":"132.716",
"APOAPSIS":"3832.570",
"PERIAPSIS":"648.573",
"OBJECT_TYPE":"PAYLOAD",
"RCS_SIZE":"SMALL",
"COUNTRY_CODE":"US",
"LAUNCH_DATE":"1958-03-17",
"SITE":"AFETR",
"DECAY_DATE":null,
"FILE":"3631438",
"GP_ID":"216016665",
"TLE_LINE0":"0 VANGUARD 1",
"TLE_LINE1":"1 00005U 58002B   22297.54318862  .00000198  00000-0  22390-3 0  9996",
"TLE_LINE2":"2 00005  34.2576 101.5691 1847143 258.6337  80.2135 10.85024727298564"},
{"CCSDS_OMM_VERS":"2.0",
"COMMENT":"GENERATED VIA SPACE-TRACK.ORG API",
"CREATION_DATE":"2022-10-25T02:21:04",
"ORIGINATOR":"18 SPCS",
"OBJECT_NAME":"VANGUARD 1",
"OBJECT_ID":"1958-002B",
"CENTER_NAME":"EARTH",
"REF_FRAME":"TEME",
"TIME_SYSTEM":"UTC",
"MEAN_ELEMENT_THEORY":"SGP4",
"EPOCH":"2022-10-24T19:39:52.343712",
"MEAN_MOTION":"10.85024841",
"ECCENTRICITY":"0.18471420",
"INCLINATION":"34.2578",
"RA_OF_ASC_NODE":"100.7183",
"ARG_OF_PERICENTER":"259.8760",
"MEAN_ANOMALY":"78.9482",
"EPHEMERIS_TYPE":"0",
"CLASSIFICATION_TYPE":"U",
"NORAD_CAT_ID":"5",
"ELEMENT_SET_NO":"999",
"REV_AT_EPOCH":"29859",
"BSTAR":"0.00022120000000",
"MEAN_MOTION_DOT":"0.00000196",
"MEAN_MOTION_DDOT":"0.0000000000000",
"SEMIMAJOR_AXIS":"8618.706",
"PERIOD":"132.716",
"APOAPSIS":"3832.568",
"PERIAPSIS":"648.573",
"OBJECT_TYPE":"PAYLOAD",
"RCS_SIZE":"SMALL",
"COUNTRY_CODE":"US",
"LAUNCH_DATE":"1958-03-17",
"SITE":"AFETR",
"DECAY_DATE":null,
"FILE":"3631857",
"GP_ID":"216049210",
"TLE_LINE0":"0 VANGUARD 1",
"TLE_LINE1":"1 00005U 58002B   22297.81935583  .00000196  00000-0  22120-3 0  9990",
"TLE_LINE2":"2 00005  34.2578 100.7183 1847142 259.8760  78.9482 10.85024841298594"},
{"CCSDS_OMM_VERS":"2.0",
"COMMENT":"GENERATED VIA SPACE-TRACK.ORG API",
"CREATION_DATE":"2022-10-26T04:08:06",
"ORIGINATOR":"18 SPCS",
"OBJECT_NAME":"VANGUARD 1",
"OBJECT_ID":"1958-002B",
"CENTER_NAME":"EARTH",
"REF_FRAME":"TEME",
"TIME_SYSTEM":"UTC",
"MEAN_ELEMENT_THEORY":"SGP4",
"EPOCH":"2022-10-25T19:58:04.028448",
"MEAN_MOTION":"10.85025186",
"ECCENTRICITY":"0.18471580",
"INCLINATION":"34.2582",
"RA_OF_ASC_NODE":"97.5986",
"ARG_OF_PERICENTER":"264.4316",
"MEAN_ANOMALY":"74.3953",
"EPHEMERIS_TYPE":"0",
"CLASSIFICATION_TYPE":"U",
"NORAD_CAT_ID":"5",
"ELEMENT_SET_NO":"999",
"REV_AT_EPOCH":"29870",
"BSTAR":"0.00020778000000",
"MEAN_MOTION_DOT":"0.00000185",
"MEAN_MOTION_DDOT":"0.0000000000000",
"SEMIMAJOR_AXIS":"8618.704",
"PERIOD":"132.716",
"APOAPSIS":"3832.580",
"PERIAPSIS":"648.558",
"OBJECT_TYPE":"PAYLOAD",
"RCS_SIZE":"SMALL",
"COUNTRY_CODE":"US",
"LAUNCH_DATE":"1958-03-17",
"SITE":"AFETR",
"DECAY_DATE":null,
"FILE":"3633327",
"GP_ID":"216133039",
"TLE_LINE0":"0 VANGUARD 1",
"TLE_LINE1":"1 00005U 58002B   22298.83199107  .00000185  00000-0  20778-3 0  9992",
"TLE_LINE2":"2 00005  34.2582  97.5986 1847158 264.4316  74.3953 10.85025186298708"},
{"CCSDS_OMM_VERS":"2.0",
"COMMENT":"GENERATED VIA SPACE-TRACK.ORG API",
"CREATION_DATE":"2022-10-26T19:25:05",
"ORIGINATOR":"18 SPCS",
"OBJECT_NAME":"VANGUARD 1",
"OBJECT_ID":"1958-002B",
"CENTER_NAME":"EARTH",
"REF_FRAME":"TEME",
"TIME_SYSTEM":"UTC",
"MEAN_ELEMENT_THEORY":"SGP4",
"EPOCH":"2022-10-26T11:26:02.083200",
"MEAN_MOTION":"10.85025441",
"ECCENTRICITY":"0.18471630",
"INCLINATION":"34.2583",
"RA_OF_ASC_NODE":"95.6132",
"ARG_OF_PERICENTER":"267.3309",
"MEAN_ANOMALY":"71.5675",
"EPHEMERIS_TYPE":"0",
"CLASSIFICATION_TYPE":"U",
"NORAD_CAT_ID":"5",
"ELEMENT_SET_NO":"999",
"REV_AT_EPOCH":"29877",
"BSTAR":"0.00021057000000",
"MEAN_MOTION_DOT":"0.00000187",
"MEAN_MOTION_DDOT":"0.0000000000000",
"SEMIMAJOR_AXIS":"8618.703",
"PERIOD":"132.716",
"APOAPSIS":"3832.582",
"PERIAPSIS":"648.553",
"OBJECT_TYPE":"PAYLOAD",
"RCS_SIZE":"SMALL",
"COUNTRY_CODE":"US",
"LAUNCH_DATE":"1958-03-17",
"SITE":"AFETR",
"DECAY_DATE":null,
"FILE":"3634846",
"GP_ID":"216186708",
"TLE_LINE0":"0 VANGUARD 1",
"TLE_LINE1":"1 00005U 58002B   22299.47641300  .00000187  00000-0  21057-3 0  9993",
"TLE_LINE2":"2 00005  34.2583  95.6132 1847163 267.3309  71.5675 10.85025441298772"},
{"CCSDS_OMM_VERS":"2.0",
"COMMENT":"GENERATED VIA SPACE-TRACK.ORG API",
"CREATION_DATE":"2022-10-26T15:06:12",
"ORIGINATOR":"18 SPCS",
"OBJECT_NAME":"VANGUARD 1",
"OBJECT_ID":"1958-002B",
"CENTER_NAME":"EARTH",
"REF_FRAME":"TEME",
"TIME_SYSTEM":"UTC",
"MEAN_ELEMENT_THEORY":"SGP4",
"EPOCH":"2022-10-26T11:26:02.083200",
"MEAN_MOTION":"10.85025441",
"ECCENTRICITY":"0.18471630",
"INCLINATION":"34.2583",
"RA_OF_ASC_NODE":"95.6132",
"ARG_OF_PERICENTER":"267.3309",
"MEAN_ANOMALY":"71.5675",
"EPHEMERIS_TYPE":"0",
"CLASSIFICATION_TYPE":"U",
"NORAD_CAT_ID":"5",
"ELEMENT_SET_NO":"999",
"REV_AT_EPOCH":"29886",
"BSTAR":"0.00021057000000",
"MEAN_MOTION_DOT":"0.00000187",
"MEAN_MOTION_DDOT":"0.0000000000000",
"SEMIMAJOR_AXIS":"8618.703",
"PERIOD":"132.716",
"APOAPSIS":"3832.582",
"PERIAPSIS":"648.553",
"OBJECT_TYPE":"PAYLOAD",
"RCS_SIZE":"SMALL",
"COUNTRY_CODE":"US",
"LAUNCH_DATE":"1958-03-17",
"SITE":"AFETR",
"DECAY_DATE":null,
"FILE":"3634177",
"GP_ID":"216172136",
"TLE_LINE0":"0 VANGUARD 1",
"TLE_LINE1":"1     5U 58002B   22299.47641300  .00000187  00000-0  21057-3 0  9993",
"TLE_LINE2":"2     5  34.2583  95.6132 1847163 267.3309  71.5675 10.85025441298862"}]